{"type": "FeatureCollection", "features": [ {"type": "Feature", "properties": {"norad_id": 66910, "name": "1998-067XW", "group": "stations", "lat": -48.14873765049139, "lon": 95.65673559727418, "alt_km": 418.12543037031537, "timestamp": "2025-12-09T14:52:24.959124+00:00", "meta": {"OBJECT_NAME": "1998-067XW", "OBJECT_ID": "1998-067XW", "EPOCH": "2025-12-08T22:10:28.282080", "MEAN_MOTION": 15.51110893, "ECCENTRICITY": 0.0005927, "INCLINATION": 51.6296, "RA_OF_ASC_NODE": 161.31, "ARG_OF_PERICENTER": 189.6161, "MEAN_ANOMALY": 170.4716, "EPHEMERIS_TYPE": 0, "CLASSIFICATION_TYPE": "U", "NORAD_CAT_ID": 66910, "ELEMENT_SET_NO": 999, "REV_AT_EPOCH": 102, "BSTAR": 0.0011401, "MEAN_MOTION_DOT": 0.00067841, "MEAN_MOTION_DDOT": 0}, "tle": {"line1": "1 66910U 98067XW  25342.92393845  .00067841  00000+0  11401-2 0  9995", "line2": "2 66910  51.6296 161.3100 0005927 189.6161 170.4716 15.51110893  1023"}}, "geometry": {"type": "Point", "coordinates": [95.65673559727418, -48.14873765049139]}}, {"type": "Feature", "properties": {"norad_id": 66911, "name": "1998-067XX", "group": "stations", "lat": -47.49424183445033, "lon": 98.027744621334, "alt_km": 417.6982567299856, "timestamp": "2025-12-09T14:52:24.959136+00:00", "meta": {"OBJECT_NAME": "1998-067XX", "OBJECT_ID": "1998-067XX", "EPOCH": "2025-12-09T02:48:25.031232", "MEAN_MOTION": 15.51276016, "ECCENTRICITY": 0.00057067, "INCLINATION": 51.6296, "RA_OF_ASC_NODE": 160.3494, "ARG_OF_PERICENTER": 191.2278, "MEAN_ANOMALY": 168.8584, "EPHEMERIS_TYPE": 0, "CLASSIFICATION_TYPE": "U", "NORAD_CAT_ID": 66911, "ELEMENT_SET_NO": 999, "REV_AT_EPOCH": 104, "BSTAR": 0.0013712435, "MEAN_MOTION_DOT": 0.00082324, "MEAN_MOTION_DDOT": 0}, "tle": {"line1": "1 66911U 98067XX  25343.11695638  .00082324  00000+0  13712-2 0  9993", "line2": "2 66911  51.6296 160.3494 0005706 191.2278 168.8584 15.51276016  1048"}}, "geometry": {"type": "Point", "coordinates": [98.027744621334, -47.49424183445033]}}, {"type": "Feature", "properties": {"norad_id": 66912, "name": "1998-067XY", "group": "stations", "lat": -51.07739269637335, "lon": 79.02927605978559, "alt_km": 418.1923140769386, "timestamp": "2025-12-09T14:52:24.959146+00:00", "meta": {"OBJECT_NAME": "1998-067XY", "OBJECT_ID": "1998-067XY", "EPOCH": "2025-12-08T19:07:24.190464", "MEAN_MOTION": 15.50590013, "ECCENTRICITY": 0.00050406, "INCLINATION": 51.6301, "RA_OF_ASC_NODE": 161.961, "ARG_OF_PERICENTER": 202.8515, "MEAN_ANOMALY": 157.2251, "EPHEMERIS_TYPE": 0, "CLASSIFICATION_TYPE": "U", "NORAD_CAT_ID": 66912, "ELEMENT_SET_NO": 999, "REV_AT_EPOCH": 99, "BSTAR": 0.0010396633, "MEAN_MOTION_DOT": 0.00060617, "MEAN_MOTION_DDOT": 0}, "tle": {"line1": "1 66912U 98067XY  25342.79680776  .00060617  00000+0  10397-2 0  9991", "line2": "2 66912  51.6301 161.9610 0005040 202.8515 157.2251 15.50590013   998"}}, "geometry": {"type": "Point", "coordinates": [79.02927605978559, -51.07739269637335]}}]}